     2              NAVIGATION DATA                         RINEX VERSION / TYPE
CCRINEXN V1.6.0 UX  CDDIS               12-JUN-16 15:33     PGM / RUN BY / DATE 
IGS BROADCAST EPHEMERIS FILE                                COMMENT             
    0.5588D-08  0.1490D-07 -0.5960D-07 -0.1192D-06          ION ALPHA           
    0.8397D+05  0.9830D+05 -0.6554D+05 -0.5243D+06          ION BETA            
   -0.372529029846D-08-0.150990331349D-13   147456     1901 DELTA-UTC: A0,A1,T,W
    17                                                      LEAP SECONDS        
                                                            END OF HEADER       
22 16  6 11 13 59 44.0 0.322372186929D-03-0.864019966684D-11 0.000000000000D+00
    0.800000000000D+01 0.590625000000D+01 0.524664711534D-08-0.102140016169D+01
    0.551342964172D-06 0.767299789004D-02 0.918284058571D-05 0.515380593300D+04
    0.568784000000D+06 0.204890966415D-07-0.140379709047D+01 0.156462192535D-06
    0.922552975600D+00 0.183500000000D+03-0.190689375627D+01-0.843320841984D-08
    0.276440086268D-09 0.100000000000D+01 0.190000000000D+04 0.000000000000D+00
    0.200000000000D+01 0.000000000000D+00-0.176951289177D-07 0.800000000000D+01
    0.561600000000D+06 0.400000000000D+01 0.000000000000D+00 0.000000000000D+00
25 16  6 11 13 59 44.0-0.188270583749D-03-0.704858393874D-11 0.000000000000D+00
    0.170000000000D+02 0.343750000000D+02 0.408659879467D-08 0.177736675546D+01
    0.170432031155D-05 0.562435807660D-02 0.899285078049D-05 0.515374713326D+04
    0.568784000000D+06-0.158324837685D-06 0.177193523322D+01 0.167638063431D-07
    0.978324992351D+00 0.215906250000D+03 0.783470625462D+00-0.788818571746D-08
   -0.128576784311D-10 0.000000000000D+00 0.190000000000D+04 0.000000000000D+00
    0.200000000000D+01 0.000000000000D+00 0.558793544769D-08 0.170000000000D+02
    0.564660000000D+06 0.400000000000D+01 0.000000000000D+00 0.000000000000D+00
 1 16  6 11 14  0  0.0 0.232965685427D-04 0.125055521494D-11 0.000000000000D+00
    0.550000000000D+02-0.657187500000D+02 0.423553356983D-08-0.266740249417D+01
   -0.337697565556D-05 0.556190218777D-02 0.773929059505D-05 0.515364712715D+04
    0.568800000000D+06-0.279396772385D-07-0.241246498311D+01-0.130385160446D-07
    0.964612401418D+00 0.233062500000D+03 0.468426992184D+00-0.789640034534D-08
    0.000000000000D+00 0.100000000000D+01 0.190000000000D+04 0.000000000000D+00
    0.200000000000D+01 0.000000000000D+00 0.512227416039D-08 0.550000000000D+02
    0.561600000000D+06 0.400000000000D+01 0.000000000000D+00 0.000000000000D+00
 2 16  6 11 14  0  0.0 0.586131121963D-03-0.250111042988D-11 0.000000000000D+00
    0.460000000000D+02-0.755312500000D+02 0.469662420468D-08-0.230868127505D+01
   -0.384263694286D-05 0.157670200570D-01 0.739283859730D-05 0.515357924080D+04
    0.568800000000D+06 0.150874257088D-06-0.245830720641D+01-0.949949026108D-07
    0.943413597855D+00 0.225437500000D+03-0.210945949790D+01-0.797711799327D-08
   -0.714315468392D-12 0.000000000000D+00 0.190000000000D+04 0.000000000000D+00
    0.200000000000D+01 0.000000000000D+00-0.200234353542D-07 0.460000000000D+02
    0.561600000000D+06 0.400000000000D+01 0.000000000000D+00 0.000000000000D+00
 3 16  6 11 14  0  0.0-0.663208775222D-04-0.341060513165D-11 0.000000000000D+00
    0.240000000000D+02 0.409375000000D+01 0.439196865741D-08-0.161848156208D+01
    0.342726707459D-06 0.224073533900D-03 0.930391252041D-05 0.515368899345D+04
    0.568800000000D+06 0.745058059692D-08-0.137087468671D+01-0.167638063431D-07
    0.958923190543D+00 0.197250000000D+03-0.171672618392D+01-0.796033157976D-08
    0.275011455331D-09 0.100000000000D+01 0.190000000000D+04 0.000000000000D+00
    0.200000000000D+01 0.000000000000D+00 0.186264514923D-08 0.240000000000D+02
    0.561600000000D+06 0.400000000000D+01 0.000000000000D+00 0.000000000000D+00
 4 16  6 11 14  0  0.0-0.257622450590D-03-0.454747350886D-12 0.000000000000D+00
    0.990000000000D+02 0.289062500000D+02 0.536272337895D-08 0.513816889987D+00
    0.178813934326D-05 0.850404007360D-02 0.826455652714D-05 0.515365187263D+04
    0.568800000000D+06-0.242143869400D-07 0.179364303719D+01 0.707805156708D-07
    0.983099540031D+00 0.230281250000D+03 0.894713278822D+00-0.800104756146D-08
   -0.910752222200D-10 0.100000000000D+01 0.190000000000D+04 0.000000000000D+00
    0.280000000000D+01 0.630000000000D+02-0.195577740669D-07 0.990000000000D+02
    0.561600000000D+06 0.400000000000D+01 0.000000000000D+00 0.000000000000D+00
 5 16  6 11 14  0  0.0-0.113676767796D-03 0.295585778076D-11 0.000000000000D+00
    0.121000000000D+03 0.681250000000D+01 0.468376652625D-08 0.193639322724D+00
    0.452622771263D-06 0.463851995301D-02 0.100601464510D-04 0.515381279182D+04
    0.568800000000D+06 0.670552253723D-07-0.138297917664D+01 0.949949026108D-07
    0.945989896071D+00 0.177281250000D+03 0.453192569998D+00-0.813783897366D-08
    0.278225874939D-09 0.000000000000D+00 0.190000000000D+04 0.000000000000D+00
    0.200000000000D+01 0.000000000000D+00-0.107102096081D-07 0.121000000000D+03
    0.561600000000D+06 0.400000000000D+01 0.000000000000D+00 0.000000000000D+00
 6 16  6 11 14  0  0.0 0.203269068152D-03 0.545696821064D-11 0.000000000000D+00
    0.100000000000D+03-0.621875000000D+02 0.438661129140D-08-0.243904471097D+01
   -0.326894223690D-05 0.414139125496D-03 0.785663723946D-05 0.515370776749D+04
    0.568800000000D+06 0.447034835815D-07-0.242089132981D+01-0.745058059692D-08
    0.964444119026D+00 0.232062500000D+03-0.132922493208D+01-0.801140513575D-08
   -0.128933942045D-09 0.100000000000D+01 0.190000000000D+04 0.000000000000D+00
    0.200000000000D+01 0.000000000000D+00 0.419095158577D-08 0.100000000000D+03
    0.561690000000D+06 0.400000000000D+01 0.000000000000D+00 0.000000000000D+00
 7 16  6 11 14  0  0.0 0.449116807431D-03-0.238742359215D-11 0.000000000000D+00
    0.650000000000D+02 0.703125000000D+01 0.447625788268D-08 0.289167265457D+01
    0.337138772011D-06 0.956520240288D-02 0.769272446632D-05 0.515364863586D+04
    0.568800000000D+06-0.130385160446D-06 0.746321065782D+00-0.856816768646D-07
    0.966405229468D+00 0.237000000000D+03-0.267411946497D+01-0.786711341114D-08
   -0.249653256203D-09 0.100000000000D+01 0.190000000000D+04 0.000000000000D+00
    0.200000000000D+01 0.000000000000D+00-0.111758708954D-07 0.650000000000D+02
    0.565500000000D+06 0.400000000000D+01 0.000000000000D+00 0.000000000000D+00
 8 16  6 11 14  0  0.0-0.386196188629D-04-0.147792889038D-11 0.000000000000D+00
    0.310000000000D+02-0.715625000000D+01 0.448340120585D-08 0.298797987987D+00
   -0.379979610443D-06 0.172900815960D-02 0.487454235554D-05 0.515370319939D+04
    0.568800000000D+06-0.558793544769D-08 0.281054039555D+01-0.260770320892D-07
    0.963633110890D+00 0.290218750000D+03-0.107668081791D+01-0.821605627976D-08
   -0.178578870441D-10 0.100000000000D+01 0.190000000000D+04 0.000000000000D+00
    0.200000000000D+01 0.000000000000D+00 0.465661287308D-08 0.310000000000D+02
    0.561600000000D+06 0.000000000000D+00 0.000000000000D+00 0.000000000000D+00
 9 16  6 11 14  0  0.0 0.146593898535D-03 0.727595761418D-11 0.000000000000D+00
    0.470000000000D+02 0.346875000000D+02 0.494056293713D-08-0.933816138425D+00
    0.149570405483D-05 0.541949062608D-03 0.638887286186D-05 0.515356211853D+04
    0.568800000000D+06 0.521540641785D-07-0.331484835605D+00-0.372529029846D-08
    0.955127143416D+00 0.255843750000D+03 0.232357897885D+01-0.828141638280D-08
    0.121076471893D-09 0.100000000000D+01 0.190000000000D+04 0.000000000000D+00
    0.200000000000D+01 0.000000000000D+00 0.139698386192D-08 0.470000000000D+02
    0.561600000000D+06 0.400000000000D+01 0.000000000000D+00 0.000000000000D+00
10 16  6 11 14  0  0.0-0.431053340435D-04-0.829913915368D-11 0.000000000000D+00
    0.430000000000D+02-0.256250000000D+01 0.441125517506D-08 0.126376046131D+01
   -0.182539224625D-06 0.154426717199D-02 0.100452452898D-04 0.515368480682D+04
    0.568800000000D+06-0.391155481338D-07-0.137487141547D+01 0.931322574616D-08
    0.959160322249D+00 0.184093750000D+03-0.271181136642D+01-0.790104339589D-08
    0.222509268404D-09 0.000000000000D+00 0.190000000000D+04 0.000000000000D+00
    0.200000000000D+01 0.000000000000D+00 0.232830643654D-08 0.430000000000D+02
    0.567180000000D+06 0.400000000000D+01 0.000000000000D+00 0.000000000000D+00
11 16  6 11 14  0  0.0-0.650304835290D-03-0.261479726760D-11 0.000000000000D+00
    0.960000000000D+02-0.642812500000D+02 0.579738434147D-08 0.300850207066D+01
   -0.322423875332D-05 0.164481226820D-01 0.480748713017D-05 0.515366940117D+04
    0.568800000000D+06 0.203028321266D-06-0.279042328531D+01-0.409781932831D-07
    0.897098626730D+00 0.250406250000D+03 0.152943118581D+01-0.850821154402D-08
   -0.853606984729D-10 0.100000000000D+01 0.190000000000D+04 0.000000000000D+00
    0.570000000000D+01 0.000000000000D+00-0.121071934700D-07 0.960000000000D+02
    0.561600000000D+06 0.400000000000D+01 0.000000000000D+00 0.000000000000D+00
13 16  6 11 14  0  0.0-0.240085646510D-04-0.250111042988D-11 0.000000000000D+00
    0.980000000000D+02 0.284062500000D+02 0.456304721209D-08-0.246845700958D+01
    0.158138573170D-05 0.428739213385D-02 0.633299350738D-05 0.515367711830D+04
    0.568800000000D+06 0.223517417908D-07-0.210584858745D+00 0.447034835815D-07
    0.971579044064D+00 0.261250000000D+03 0.200359249941D+01-0.800604776974D-08
    0.810748056625D-10 0.000000000000D+00 0.190000000000D+04 0.000000000000D+00
    0.280000000000D+01 0.000000000000D+00-0.111758708954D-07 0.980000000000D+02
    0.561600000000D+06 0.400000000000D+01 0.000000000000D+00 0.000000000000D+00
